{
  "norad_id": 51147,
  "name": "STARLINK-3352",
  "history": [
    {
      "epoch": "2026-03-28T17:12:05.711328",
      "apogee_km": 488.4294842879699,
      "perigee_km": 486.11323281596196,
      "latitude_deg": -5.6352214217734184,
      "longitude_deg": 83.50634592003189,
      "semi_major_axis_km": 6865.408358551966,
      "eccentricity": 0.00016869,
      "inclination_deg": 53.193,
      "raan_deg": 209.072,
      "arg_perigee_deg": 346.743,
      "mean_anomaly_deg": 13.3525,
      "mean_motion_rev_day": 15.26171012
    }
  ]
}