{"fetched_at":"2026-03-30T20:46:33Z","count":15425,"tles":[{"name":"STARLINK-3352","line1":"1 51147U 22005AV  26087.71673277  .00048065  00000+0  18367-2 0  9999","line2":"2 51147  53.1930 209.0720 0001686 346.7430  13.3525 15.26171012231673","category":"Starlink"}]}